{
  "type": "FeatureCollection",
  "features": [
    {
      "type": "Feature",
      "properties": {
        "norad_id": 38755,
        "name": "SPOT 6",
        "group": "resource",
        "lat": 12.654130536481299,
        "lon": 55.80765845145698,
        "alt_km": 698.67841857027,
        "timestamp": "2025-12-18T23:35:48.704082+00:00",
        "meta_object_name": "SPOT 6",
        "meta_object_id": "2012-047A",
        "meta_epoch": "2025-12-18T15:18:22.018176",
        "meta_mean_motion": 14.58537578,
        "meta_eccentricity": 0.00013229,
        "meta_inclination": 98.1573,
        "meta_ra_of_asc_node": 57.3141,
        "meta_arg_of_pericenter": 77.4903,
        "meta_mean_anomaly": 282.6444,
        "meta_ephemeris_type": 0,
        "meta_classification_type": "U",
        "meta_norad_cat_id": 38755,
        "meta_element_set_no": 999,
        "meta_rev_at_epoch": 70673,
        "meta_bstar": 6.1418442e-05,
        "meta_mean_motion_dot": 2.4e-06,
        "meta_mean_motion_ddot": 0,
        "tle_line1": "1 38755U 12047A   25352.63775484  .00000240  00000+0  61418-4 0  9992",
        "tle_line2": "2 38755  98.1573  57.3141 0001322  77.4903 282.6444 14.58537578706738"
      },
      "geometry": {
        "type": "Point",
        "coordinates": [
          55.80765845145698,
          12.654130536481299
        ]
      }
    },
    {
      "type": "Feature",
      "properties": {
        "norad_id": 39019,
        "name": "PLEIADES 1B",
        "group": "resource",
        "lat": -81.77080720207962,
        "lon": 149.54355350058805,
        "alt_km": 705.9983225570895,
        "timestamp": "2025-12-18T23:35:48.704093+00:00",
        "meta_object_name": "PLEIADES 1B",
        "meta_object_id": "2012-068A",
        "meta_epoch": "2025-12-18T15:46:22.678752",
        "meta_mean_motion": 14.5855828,
        "meta_eccentricity": 0.00011658,
        "meta_inclination": 98.1795,
        "meta_ra_of_asc_node": 65.2158,
        "meta_arg_of_pericenter": 84.5848,
        "meta_mean_anomaly": 275.5485,
        "meta_ephemeris_type": 0,
        "meta_classification_type": "U",
        "meta_norad_cat_id": 39019,
        "meta_element_set_no": 999,
        "meta_rev_at_epoch": 69453,
        "meta_bstar": 7.1954767e-05,
        "meta_mean_motion_dot": 2.89e-06,
        "meta_mean_motion_ddot": 0,
        "tle_line1": "1 39019U 12068A   25352.65720693  .00000289  00000+0  71955-4 0  9993",
        "tle_line2": "2 39019  98.1795  65.2158 0001165  84.5848 275.5485 14.58558280694539"
      },
      "geometry": {
        "type": "Point",
        "coordinates": [
          149.54355350058805,
          -81.77080720207962
        ]
      }
    },
    {
      "type": "Feature",
      "properties": {
        "norad_id": 39030,
        "name": "GOKTURK 2",
        "group": "resource",
        "lat": 37.81890651769663,
        "lon": 20.348595915917358,
        "alt_km": 640.7704350770564,
        "timestamp": "2025-12-18T23:35:48.704104+00:00",
        "meta_object_name": "GOKTURK 2",
        "meta_object_id": "2012-073A",
        "meta_epoch": "2025-12-18T14:49:04.624032",
        "meta_mean_motion": 14.75300399,
        "meta_eccentricity": 0.00011791,
        "meta_inclination": 97.689,
        "meta_ra_of_asc_node": 193.9815,
        "meta_arg_of_pericenter": 108.3857,
        "meta_mean_anomaly": 251.7481,
        "meta_ephemeris_type": 0,
        "meta_classification_type": "U",
        "meta_norad_cat_id": 39030,
        "meta_element_set_no": 999,
        "meta_rev_at_epoch": 69788,
        "meta_bstar": 0.00012221961,
        "meta_mean_motion_dot": 7.81e-06,
        "meta_mean_motion_ddot": 0,
        "tle_line1": "1 39030U 12073A   25352.61741463  .00000781  00000+0  12222-3 0  9994",
        "tle_line2": "2 39030  97.6890 193.9815 0001179 108.3857 251.7481 14.75300399697889"
      },
      "geometry": {
        "type": "Point",
        "coordinates": [
          20.348595915917358,
          37.81890651769663
        ]
      }
    },
    {
      "type": "Feature",
      "properties": {
        "norad_id": 39084,
        "name": "LANDSAT 8",
        "group": "resource",
        "lat": 47.81964714559837,
        "lon": 51.79998122694704,
        "alt_km": 697.668080303316,
        "timestamp": "2025-12-18T23:35:48.704115+00:00",
        "meta_object_name": "LANDSAT 8",
        "meta_object_id": "2013-008A",
        "meta_epoch": "2025-12-18T15:08:05.273376",
        "meta_mean_motion": 14.5710851,
        "meta_eccentricity": 0.00010859,
        "meta_inclination": 98.2066,
        "meta_ra_of_asc_node": 60.617,
        "meta_arg_of_pericenter": 89.597,
        "meta_mean_anomaly": 270.5353,
        "meta_ephemeris_type": 0,
        "meta_classification_type": "U",
        "meta_norad_cat_id": 39084,
        "meta_element_set_no": 999,
        "meta_rev_at_epoch": 67160,
        "meta_bstar": 8.0809998e-05,
        "meta_mean_motion_dot": 3.19e-06,
        "meta_mean_motion_ddot": 0,
        "tle_line1": "1 39084U 13008A   25352.63061659  .00000319  00000+0  80810-4 0  9992",
        "tle_line2": "2 39084  98.2066  60.6170 0001085  89.5970 270.5353 14.57108510671606"
      },
      "geometry": {
        "type": "Point",
        "coordinates": [
          51.79998122694704,
          47.81964714559837
        ]
      }
    },
    {
      "type": "Feature",
      "properties": {
        "norad_id": 39086,
        "name": "SARAL",
        "group": "resource",
        "lat": -27.520607699160884,
        "lon": -7.663846894829885,
        "alt_km": 789.0219913821065,
        "timestamp": "2025-12-18T23:35:48.704125+00:00",
        "meta_object_name": "SARAL",
        "meta_object_id": "2013-009A",
        "meta_epoch": "2025-12-18T14:15:00.927936",
        "meta_mean_motion": 14.32759034,
        "meta_eccentricity": 0.00029422,
        "meta_inclination": 98.5502,
        "meta_ra_of_asc_node": 176.4477,
        "meta_arg_of_pericenter": 97.7424,
        "meta_mean_anomaly": 262.4094,
        "meta_ephemeris_type": 0,
        "meta_classification_type": "U",
        "meta_norad_cat_id": 39086,
        "meta_element_set_no": 999,
        "meta_rev_at_epoch": 66974,
        "meta_bstar": 5.2670291e-05,
        "meta_mean_motion_dot": 1e-06,
        "meta_mean_motion_ddot": 0,
        "tle_line1": "1 39086U 13009A   25352.59376074  .00000100  00000+0  52670-4 0  9991",
        "tle_line2": "2 39086  98.5502 176.4477 0002942  97.7424 262.4094 14.32759034669740"
      },
      "geometry": {
        "type": "Point",
        "coordinates": [
          -7.663846894829885,
          -27.520607699160884
        ]
      }
    },
    {
      "type": "Feature",
      "properties": {
        "norad_id": 39150,
        "name": "GAOFEN-1",
        "group": "resource",
        "lat": -66.66396798449574,
        "lon": -135.32435563831544,
        "alt_km": 654.7696535698342,
        "timestamp": "2025-12-18T23:35:48.704136+00:00",
        "meta_object_name": "GAOFEN-1",
        "meta_object_id": "2013-018A",
        "meta_epoch": "2025-12-18T14:20:48.687936",
        "meta_mean_motion": 14.76544474,
        "meta_eccentricity": 0.0018491,
        "meta_inclination": 97.9326,
        "meta_ra_of_asc_node": 63.1539,
        "meta_arg_of_pericenter": 125.0217,
        "meta_mean_anomaly": 235.2731,
        "meta_ephemeris_type": 0,
        "meta_classification_type": "U",
        "meta_norad_cat_id": 39150,
        "meta_element_set_no": 999,
        "meta_rev_at_epoch": 68159,
        "meta_bstar": 9.088469e-05,
        "meta_mean_motion_dot": 5.84e-06,
        "meta_mean_motion_ddot": 0,
        "tle_line1": "1 39150U 13018A   25352.59778574  .00000584  00000+0  90885-4 0  9990",
        "tle_line2": "2 39150  97.9326  63.1539 0018491 125.0217 235.2731 14.76544474681592"
      },
      "geometry": {
        "type": "Point",
        "coordinates": [
          -135.32435563831544,
          -66.66396798449574
        ]
      }
    },
    {
      "type": "Feature",
      "properties": {
        "norad_id": 39160,
        "name": "VNREDSAT 1",
        "group": "resource",
        "lat": 48.904494143650666,
        "lon": 38.83517624136104,
        "alt_km": 672.1443360352087,
        "timestamp": "2025-12-18T23:35:48.704146+00:00",
        "meta_object_name": "VNREDSAT 1",
        "meta_object_id": "2013-021B",
        "meta_epoch": "2025-12-18T15:10:30.302688",
        "meta_mean_motion": 14.64931924,
        "meta_eccentricity": 0.00011886,
        "meta_inclination": 97.9373,
        "meta_ra_of_asc_node": 47.701,
        "meta_arg_of_pericenter": 78.7229,
        "meta_mean_anomaly": 281.4108,
        "meta_ephemeris_type": 0,
        "meta_classification_type": "U",
        "meta_norad_cat_id": 39160,
        "meta_element_set_no": 999,
        "meta_rev_at_epoch": 67385,
        "meta_bstar": 0.00012843188,
        "meta_mean_motion_dot": 6.41e-06,
        "meta_mean_motion_ddot": 0,
        "tle_line1": "1 39160U 13021B   25352.63229517  .00000641  00000+0  12843-3 0  9999",
        "tle_line2": "2 39160  97.9373  47.7010 0001188  78.7229 281.4108 14.64931924673857"
      },
      "geometry": {
        "type": "Point",
        "coordinates": [
          38.83517624136104,
          48.904494143650666
        ]
      }
    }
  ]
}